ADRAS-J                 
1 58992U 24034A   24280.50275353  .00013599  00000+0  12011-2 0  9995
2 58992  98.2264 258.7683 0044649  44.7205 315.7601 14.95719571 34496
